[{"OBJECT_NAME":"JILIN-1 06","OBJECT_ID":"2017-074C","EPOCH":"2026-03-09T22:46:57.173376","MEAN_MOTION":15.32444387,"ECCENTRICITY":0.00061285,"INCLINATION":97.4715,"RA_OF_ASC_NODE":171.0354,"ARG_OF_PERICENTER":223.0031,"MEAN_ANOMALY":137.0732,"EPHEMERIS_TYPE":0,"CLASSIFICATION_TYPE":"U","NORAD_CAT_ID":43024,"ELEMENT_SET_NO":999,"REV_AT_EPOCH":45863,"BSTAR":0.00028431628,"MEAN_MOTION_DOT":8.833e-5,"MEAN_MOTION_DDOT":0},{"OBJECT_NAME":"STARLINK-35747","OBJECT_ID":"2025-244B","EPOCH":"2026-03-09T18:04:51.790944","MEAN_MOTION":15.30181463,"ECCENTRICITY":8.528e-5,"INCLINATION":53.1587,"RA_OF_ASC_NODE":229.9645,"ARG_OF_PERICENTER":97.5769,"MEAN_ANOMALY":262.5329,"EPHEMERIS_TYPE":0,"CLASSIFICATION_TYPE":"U","NORAD_CAT_ID":66207,"ELEMENT_SET_NO":999,"REV_AT_EPOCH":2166,"BSTAR":0.00072273941,"MEAN_MOTION_DOT":0.00021095,"MEAN_MOTION_DDOT":0}]
